NORAD_CAT_ID,OBJECT_NAME,OBJECT_TYPE,EPOCH,MEAN_MOTION,ECCENTRICITY,INCLINATION,RA_OF_ASC_NODE,ARG_OF_PERICENTER,MEAN_ANOMALY,BSTAR,MEAN_MOTION_DOT,MEAN_MOTION_DDOT,TLE_LINE0,TLE_LINE1,TLE_LINE2,SEMIMAJOR_AXIS,PERIOD,APOGEE,PERIGEE,DECAYED
52264.0,STARLINK-3795,PAYLOAD,2022-07-29 22:00:00,15.08831734,0.0001974,53.2141,269.3161,43.5162,218.9104,-0.00043506,-7.204e-05,0.0,0 STARLINK-3795,1 52264U 22041D   22210.91667824 -.00007204  00000-0 -43506-3 0  9994,2 52264  53.2141 269.3161 0001974  43.5162 218.9104 15.08831734  1306,6917.906,95.438,541.136,538.405,0.0
52264.0,STARLINK-3795,PAYLOAD,2022-07-30 06:00:00,15.0884971,0.0001966999999999,53.214,267.8199,46.3056,227.7019,-0.0011599,-0.00018706,0.0,0 STARLINK-3795,1 52264U 22041D   22211.25001157 -.00018706  00000-0 -11599-2 0  9998,2 52264  53.2140 267.8199 0001967  46.3056 227.7019 15.08849710 16531,6917.851,95.437,541.076,538.355,0.0
52264.0,STARLINK-3795,PAYLOAD,2022-07-30 14:00:01,15.08815275,0.0002161,53.2136,266.3249,41.5538,244.0569,0.0025124,0.00039897,0.0,0 STARLINK-3795,1 52264U 22041D   22211.58334491  .00039897  00000-0  25124-2 0  9995,2 52264  53.2136 266.3249 0002161  41.5538 244.0569 15.08815275  1305,6917.956,95.439,541.316,538.326,0.0
52264.0,STARLINK-3795,PAYLOAD,2022-07-30 22:00:00,15.08832369,0.0001999,53.2134,264.8268,44.7894,252.4094,0.00023189,3.404e-05,0.0,0 STARLINK-3795,1 52264U 22041D   22211.91667824  .00003404  00000-0  23189-3 0  9996,2 52264  53.2134 264.8268 0001999  44.7894 252.4094 15.08832369  1304,6917.904,95.438,541.1519999999998,538.386,0.0
52264.0,STARLINK-3795,PAYLOAD,2022-07-31 06:00:02,15.08855388,0.0002021999999999,53.2133,263.3305,46.9324,261.9129,-0.0014491,-0.00023287,0.0,0 STARLINK-3795,1 52264U 22041D   22212.25002315 -.00023287  00000-0 -14491-2 0  9990,2 52264  53.2133 263.3305 0002022  46.9324 261.9129 15.08855388 16686,6917.833000000001,95.437,541.097,538.3,0.0
52264.0,STARLINK-3795,PAYLOAD,2022-07-31 14:00:01,15.08819495,0.0002201999999999,53.213,261.8354,42.1162,278.2735,0.002589,0.00041134,0.0,0 STARLINK-3795,1 52264U 22041D   22212.58334491  .00041134  00000-0  25890-2 0  9993,2 52264  53.2130 261.8354 0002202  42.1162 278.2735 15.08819495  1304,6917.943,95.439,541.331,538.285,0.0
52264.0,STARLINK-3795,PAYLOAD,2022-07-31 22:00:00,15.08832495,0.0002053,53.214,260.3371,45.5214,286.4639,0.0008189,0.00012766,0.0,0 STARLINK-3795,1 52264U 22041D   22212.91667824  .00012766  00000-0  81890-3 0  9991,2 52264  53.2140 260.3371 0002053  45.5214 286.4639 15.08832495  1306,6917.903,95.438,541.189,538.3480000000002,0.0
52264.0,STARLINK-3795,PAYLOAD,2022-08-01 06:00:00,15.08861724,0.0002117,53.215,258.841,46.9366,296.6367,-0.0016409,-0.00026325,0.0,0 STARLINK-3795,1 52264U 22041D   22213.25001157 -.00026325  00000-0 -16409-2 0  9991,2 52264  53.2150 258.8410 0002117  46.9366 296.6367 15.08861724 16839,6917.814,95.436,541.143,538.214,0.0
52264.0,STARLINK-3795,PAYLOAD,2022-08-01 14:00:01,15.08826519,0.0002276999999999,53.2149,257.3457,42.312,312.8743,0.0025963,0.0004126,0.0,0 STARLINK-3795,1 52264U 22041D   22213.58334491  .00041260  00000-0  25963-2 0  9995,2 52264  53.2149 257.3457 0002277  42.3120 312.8743 15.08826519  1305,6917.922,95.438,541.362,538.211,0.0
52264.0,STARLINK-3795,PAYLOAD,2022-08-01 22:00:00,15.08837682,0.0002110999999999,53.215,255.8474,45.7799,321.0145,0.0012879,0.00020267,0.0,0 STARLINK-3795,1 52264U 22041D   22213.91667824  .00020267  00000-0  12879-2 0  9997,2 52264  53.2150 255.8474 0002111  45.7799 321.0145 15.08837682  1306,6917.887,95.438,541.2130000000002,538.2919999999998,0.0
52264.0,STARLINK-3795,PAYLOAD,2022-08-02 14:00:01,15.08809549,0.0002288,53.2152,252.8561,40.5037,349.4918,0.0024279,0.00038532,0.0,0 STARLINK-3795,1 52264U 22041D   22214.58334491  .00038532  00000-0  24279-2 0  9993,2 52264  53.2152 252.8561 0002288  40.5037 349.4918 15.08809549  1308,6917.973000000001,95.439,541.4209999999998,538.256,0.0
52264.0,STARLINK-3795,PAYLOAD,2022-08-03 06:00:00,15.08850904,0.0002242,53.2157,249.8621,45.1143,8.036,-0.0019582999999999,-0.0003133,0.0,0 STARLINK-3795,1 52264U 22041D   22215.25001157 -.00031330  00000-0 -19583-2 0  9991,2 52264  53.2157 249.8621 0002242  45.1143   8.0360 15.08850904 17144,6917.847,95.437,541.263,538.161,0.0
52264.0,STARLINK-3795,PAYLOAD,2022-08-03 14:00:01,15.08819894,0.0002369,53.2157,248.3667,41.0864,23.6596,0.0021298,0.00033753,0.0,0 STARLINK-3795,1 52264U 22041D   22215.58334491  .00033753  00000-0  21298-2 0  9992,2 52264  53.2157 248.3667 0002369  41.0864  23.6596 15.08819894  1301,6917.941999999999,95.439,541.446,538.168,0.0
52264.0,STARLINK-3795,PAYLOAD,2022-08-03 22:00:01,15.08817196,0.0002179,53.2161,246.8684,45.5775,30.8254,0.0021956999999999,0.00034808,0.0,0 STARLINK-3795,1 52264U 22041D   22215.91668981  .00034808  00000-0  21957-2 0  9997,2 52264  53.2161 246.8684 0002179  45.5775  30.8254 15.08817196 17241,6917.95,95.439,541.323,538.308,0.0
52264.0,STARLINK-3795,PAYLOAD,2022-08-04 14:00:01,15.0882982,0.0002413,53.216,243.8773,41.965,57.5559,0.0016426,0.00025944,0.0,0 STARLINK-3795,1 52264U 22041D   22216.58334491  .00025944  00000-0  16426-2 0  9993,2 52264  53.2160 243.8773 0002413  41.9650  57.5559 15.08829820  1300,6917.9119999999975,95.438,541.446,538.107,0.0
52264.0,STARLINK-3795,PAYLOAD,2022-08-04 22:00:00,15.08821357,0.0002203,53.2163,242.3792,46.6199,64.5032,0.0023255,0.00036898,0.0,0 STARLINK-3795,1 52264U 22041D   22216.91667824  .00036898  00000-0  23255-2 0  9997,2 52264  53.2163 242.3792 0002203  46.6199  64.5032 15.08821357  1306,6917.937,95.439,541.326,538.278,0.0
52264.0,STARLINK-3795,PAYLOAD,2022-08-05 06:00:02,15.08860471,0.0002326,53.2164,240.8838,46.5501,76.2236,-0.0019659,-0.00031458,0.0,0 STARLINK-3795,1 52264U 22041D   22217.25002315 -.00031458  00000-0 -19659-2 0  9995,2 52264  53.2164 240.8838 0002326  46.5501  76.2236 15.08860471 17441,6917.818,95.436,541.2919999999998,538.0740000000002,0.0
52264.0,STARLINK-3795,PAYLOAD,2022-08-05 14:00:01,15.08839161,0.0002421999999999,53.216,239.388,43.2458,91.133,0.0010704,0.00016788,0.0,0 STARLINK-3795,1 52264U 22041D   22217.58335648  .00016788  00000-0  10704-2 0  9998,2 52264  53.2160 239.3880 0002422  43.2458  91.1330 15.08839161  1300,6917.8830000000025,95.438,541.423,538.072,0.0
52264.0,STARLINK-3795,PAYLOAD,2022-08-05 22:00:00,15.08832598,0.0002197,53.2161,237.8901,47.6173,98.3072,0.001342,0.0002112999999999,0.0,0 STARLINK-3795,1 52264U 22041D   22217.91667824  .00021130  00000-0  13420-2 0  9994,2 52264  53.2161 237.8901 0002197  47.6173  98.3072 15.08832598  1308,6917.903,95.438,541.288,538.248,0.0
52264.0,STARLINK-3795,PAYLOAD,2022-08-06 14:00:01,15.0882064,0.000235,53.2155,234.899,43.0185,126.0845,0.00043284,6.604e-05,0.0,0 STARLINK-3795,1 52264U 22041D   22218.58334491  .00006604  00000-0  43284-3 0  9990,2 52264  53.2155 234.8990 0002350  43.0185 126.0845 15.08820640 17646,6917.94,95.439,541.43,538.179,0.0
52264.0,STARLINK-3795,PAYLOAD,2022-08-06 22:00:00,15.08802721,0.0002165999999999,53.2154,233.4011,48.0279,132.6559,0.0023257,0.00036882,0.0,0 STARLINK-3795,1 52264U 22041D   22218.91667824  .00036882  00000-0  23257-2 0  9994,2 52264  53.2154 233.4011 0002166  48.0279 132.6559 15.08802721  1309,6917.994000000002,95.44,541.3580000000002,538.361,0.0
52264.0,STARLINK-3795,PAYLOAD,2022-08-07 14:00:01,15.08828398,0.0002384,53.2149,230.4101,44.8401,158.9857,-0.00023072,-3.957e-05,0.0,0 STARLINK-3795,1 52264U 22041D   22219.58334491 -.00003957  00000-0 -23072-3 0  9994,2 52264  53.2149 230.4101 0002384  44.8401 158.9857 15.08828398  1303,6917.916,95.438,541.43,538.132,0.0
52264.0,STARLINK-3795,PAYLOAD,2022-08-07 22:00:00,15.08808047,0.000224,53.2147,228.9121,49.777,165.6365,0.0024251999999999,0.00038487,0.0,0 STARLINK-3795,1 52264U 22041D   22219.91667824  .00038487  00000-0  24252-2 0  9994,2 52264  53.2147 228.9121 0002240  49.7770 165.6365 15.08808047 17843,6917.978,95.44,541.393,538.293,0.0
52264.0,STARLINK-3795,PAYLOAD,2022-08-08 14:00:01,15.08842794,0.0002443,53.2144,225.9209,46.2018,192.4329,-0.00065534,-0.00010704,0.0,0 STARLINK-3795,1 52264U 22041D   22220.58335648 -.00010704  00000-0 -65534-3 0  9998,2 52264  53.2144 225.9209 0002443  46.2018 192.4329 15.08842794 17942,6917.871999999999,95.437,541.427,538.047,0.0
52264.0,STARLINK-3795,PAYLOAD,2022-08-08 22:00:00,15.08819761,0.0002333,53.2143,224.4229,51.1288,199.0446,0.0026631,0.00042327,0.0,0 STARLINK-3795,1 52264U 22041D   22220.91667824  .00042327  00000-0  26631-2 0  9997,2 52264  53.2143 224.4229 0002333  51.1288 199.0446 15.08819761  1303,6917.941999999999,95.439,541.4209999999998,538.193,0.0
52264.0,STARLINK-3795,PAYLOAD,2022-08-09 14:00:01,15.0885731,0.0002529999999999,53.2142,221.4315,47.3632,225.9925,-0.0012249,-0.0001974,0.0,0 STARLINK-3795,1 52264U 22041D   22221.58334491 -.00019740  00000-0 -12249-2 0  9997,2 52264  53.2142 221.4315 0002530  47.3632 225.9925 15.08857310 18091,6917.8269999999975,95.436,541.443,537.942,0.0
52264.0,STARLINK-3795,PAYLOAD,2022-08-09 22:00:00,15.08837742,0.0002408,53.2144,219.9334,52.0239,232.9441,0.0012117,0.00019048,0.0,0 STARLINK-3795,1 52264U 22041D   22221.91667824  .00019048  00000-0  12117-2 0  9996,2 52264  53.2144 219.9334 0002408  52.0239 232.9441 15.08837742  1300,6917.887,95.438,541.418,538.086,0.0
52264.0,STARLINK-3795,PAYLOAD,2022-08-10 14:00:01,15.08844877,0.0002535,53.2145,216.942,47.0086,261.1444,-0.0016274,-0.000261,0.0,0 STARLINK-3795,1 52264U 22041D   22222.58334491 -.00026100  00000-0 -16274-2 0  9998,2 52264  53.2145 216.9420 0002535  47.0086 261.1444 15.08844877  1303,6917.865,95.437,541.484,537.977,0.0
52264.0,STARLINK-3795,PAYLOAD,2022-08-10 16:00:00,15.08845782,0.0002506999999999,53.2147,216.5673,48.6047,352.4457,-0.0019585,-0.00031329,0.0,0 STARLINK-3795,1 52264U 22041D   22222.66667824 -.00031329  00000-0 -19585-2 0  9993,2 52264  53.2147 216.5673 0002507  48.6047 352.4457 15.08845782 18261,6917.863,95.437,541.462,537.993,0.0
